USAF,WBAN,STATION_NAME,COUNTRY,STATE/ICAO,LAT,LON,ELEV(M),BEGIN,END,CITY,
718920,99999,VANCOUVERINTL,CA,CYVR,49.194,-123.184,4.3,19550702,20220512,Vancouver,
718960,99999,PRINCEGEORGE,CA,CYXS,53.889,-122.679,691,19550702,20220512,PrinceGeorge,
711230,99999,EDMONTONINTL,CA,CYEG,53.31,-113.58,723.3,19601114,20220512,Edmonton,
718770,99999,CALGARYINTL,CA,CYYC,51.114,-114.02,1084.2,19550702,20220512,Calgary,
718660,99999,SASKATOONJGDIEFENBAKERINT,CA,CYXE,52.167,-106.7,503.8,19550702,20220512,Saskatoon,
718520,99999,WINNIPEGINTL,CA,CYWG,49.91,-97.24,238.7,19550702,20220512,Winnipeg,
719360,99999,YELLOWKNIFE,CA,CYZF,62.463,-114.44,205.7,19420701,20220512,Yellowknife,
717490,99999,THUNDERBAYA,CA,CYQT,48.367,-89.333,199,19550702,20220512,ThunderBay,
712650,99999,TORONTOCITYCENTRE,CA,CYTZ,43.617,-79.383,76.5,19790507,20220512,Toronto,
716270,94792,MONTREAL/TRUDEAUINT,CA,QCCYUL,45.467,-73.733,36,19550101,20220512,Montreal,
717270,99999,BAGOTVILLE,CA,CYBG,48.331,-70.996,159.1,19500102,20220512,Chicoutimi,
713950,99999,HALIFAXINTL,CA,CYHZ,44.881,-63.509,145.4,19600701,20220512,Halifax,
718010,99999,STJOHNSINTL,CA,CYYT,47.619,-52.752,140.5,19410929,20220512,St.John's,
725090,14739,GENELLOGANINTERNATIONALA,US,MAKBOS,42.361,-71.01,3.3,19431121,20220514,Boston,
744860,94789,JOHNFKENNEDYINTERNATIONAL,US,NYKJFK,40.639,-73.764,2.7,19730101,20220513,NewYork,
724030,93738,WASHINGTONDULLESINTERNATION,US,VAKIAD,38.935,-77.447,89.5,19730101,20220513,Washington,
723060,13722,RALEIGH-DURHAMINTERNATIONAL,US,NCKRDU,35.892,-78.782,120.5,19451101,20220514,Raleigh,
722190,13874,HARTSFIELD-JACKSONATLANTAIN,US,GAKATL,33.63,-84.442,308.3,19730101,20220513,Atlanta,
722020,12839,MIAMIINTERNATIONALAIRPORT,US,FLKMIA,25.788,-80.317,1.4,19730101,20220513,Miami,
722310,12916,LOUISARMSTRONGNEWORLEANSI,US,LAKMSY,29.998,-90.278,-1,19451001,20220513,NewOrleans,
722590,3927,DALLAS/FTWORTHINTERNATIONAL,US,TXKDFW,32.897,-97.022,165.7,19730101,20220513,Dallas,
723270,13897,NASHVILLEINTERNATIONALAIRPO,US,TNKBNA,36.111,-86.688,179,19510101,20220513,Nashville,
725240,14820,CLEVELAND-HOPKINSINTERNATION,US,OHKCLE,41.406,-81.852,236.8,19730101,20220513,Cleveland,
725340,14819,CHICAGOMIDWAYINTLARPT,US,ILKMDW,41.784,-87.755,185.8,19730101,20220513,Chicago,
726580,14922,MINNEAPOLIS-STPAULINTERNATI,US,MNKMSP,44.885,-93.231,254.5,19450101,20220513,Minneapolis,
727640,24011,BISMARCKMUNICIPALAIRPORT,US,NDKBIS,46.782,-100.758,503.2,19360701,20220513,Bismarck,
724460,3947,KANSASCITYINTERNATIONALAIR,US,MOKMCI,39.297,-94.731,307.4,19730101,20220513,KansasCity,
724660,93037,CITYOFCOLORADOSPRINGSMUNI,US,COKCOS,38.809,-104.689,1884.2,19420901,20220513,C.Springs,
727720,24144,HELENAREGIONALAIRPORT,US,MTKHLN,46.604,-111.989,1178.1,19730101,20220513,Helena,
723650,23050,ALBUQUERQUEINTLSUNPORTAIRP,US,NMKABQ,35.042,-106.615,1618.4,19410701,20220513,Albuquerque,
722780,23183,PHOENIXSKYHARBORINTLAIRPO,US,AZKPHX,33.428,-112.004,339.2,19730101,20220513,Phoenix,
722950,23174,LOSANGELESINTERNATIONALAIR,US,CAKLAX,33.938,-118.387,29.7,19440101,20220513,LosAngeles,
724940,23234,SANFRANCISCOINTERNATIONALA,US,CAKSFO,37.62,-122.366,3.2,19730101,20220513,SanFrancisco,
725720,24127,SALTLAKECITYINTERNATIONAL,US,UTKSLC,40.771,-111.965,1288.4,19411101,20220513,SLC,
724880,23185,RENO/TAHOEINTERNATIONALAIRP,US,NVKRNO,39.508,-119.768,1342.5,19430105,20220513,Reno,
726810,24131,BOISEAIRTERMINAL/GOWENFDA,US,IDKBOI,43.567,-116.241,860.5,19310101,20220513,Boise,
726980,24229,PORTLANDINTERNATIONALAIRPOR,US,ORKPDX,45.596,-122.609,6.7,19360501,20220513,Portland,
702730,26451,TEDSTEVENSANCHORAGEINTL,US,AKPANC,61.169,-150.028,38,19730101,20220513,Anchorage,
702000,26617,NOMEAIRPORT,US,AKPAOM,64.511,-165.44,5.4,19400101,20220513,Nome,
911820,22521,HONOLULUINTERNATIONALAIRPOR,US,HIPHNL,21.324,-157.939,1.9,19390601,20220513,Honolulu,
761600,99999,GENERALIGNACIOPGARCIAINTL,MX,MMHO,29.096,-111.048,191.1,19490402,20220512,Hermosillo,
763940,99999,DELNORTEINTL,MX,MMAN,25.866,-100.237,449.9,19730101,20220512,Monterrey,
767503,99999,CABOSANLUCAS,MX,MMSL,22.948,-109.939,210,19940628,20220512,CaboSanLucas,
766133,99999,DONMIGUELHIDALGOYCOSTILLA,MX,MMGL,20.522,-103.311,1528.9,19900501,20220512,Guadalajara,
766793,99999,LICENCIADOBENITOJUAREZINTL,MX,MMMX,19.436,-99.072,2229.9,19850719,20220512,MexicoCity,
766440,99999,LICENCIADOMANUELCRESCENCIO,MX,MMMD,20.937,-89.658,11.6,19730101,20220512,Merida,
787200,99999,TONCONTININTL,HO,MHTG,14.061,-87.217,1004,19510101,20220512,Tegucigalpa,
787920,99999,TOCUMENINTL,PM,MPTO,9.071,-79.383,41.1,19730101,20220512,PanamaCity,
782240,99999,JOSEMARTIINTL,CU,MUHA,22.989,-82.409,64,19390101,20220512,Havana,
783970,99999,NORMANMANLEYINTL,JM,MKJP,17.936,-76.788,3,19411222,20220512,Kingston,
780160,13601,NAVALATLANTICMETEROLOGY&O,BD,TXKF,32.367,-64.683,5.5,19411201,20220513,Bermuda,
810020,10502,GEORGETOWN,GY,SYCJ,6.499,-58.254,29,19730101,20220512,Georgetown,
804150,99999,SIMONBOLIVARINTL,VE,SVMI,10.603,-66.991,71.6,19730101,20220512,Caracas,
802220,99999,ELDORADOINTL,CO,SKBO,4.702,-74.147,2548.4,19410301,20220512,Bogota,
801120,99999,JOSEMARIACORDOVA,CO,SKRG,6.165,-75.423,2142.1,19851201,20220512,Medellin,
842030,99999,SIMONBOLIVARINTL,EC,SEGU,-2.157,-79.884,5.8,19770701,20220512,Guayaquil,
846280,99999,JORGECHAVEZINTL,PE,SPJC,-12.022,-77.114,34.4,19601106,20220512,Lima,
852010,99999,ELALTOINTL,BL,SLLP,-16.513,-68.192,4061.5,19360401,20220512,LaPaz,
862180,99999,SILVIOPETTIROSSIINTL,PA,SGAS,-25.24,-57.519,89,19490101,20220512,Asuncion,
854420,99999,CERROMORENOINTL,CI,SCFA,-23.444,-70.445,138.7,19350101,20220512,Antofagasta,
855740,99999,ARTUROMERINOBENITEZINTL,CI,SCEL,-33.393,-70.786,474,19730101,20220512,Santiago,
857660,99999,PICHOY,CI,SCVD,-39.65,-73.086,18,19730101,20220512,Valdivia,
859340,99999,CARLOSIBANEZDELCAMPOINTL,CI,SCCI,-53.003,-70.855,42.4,19350101,20220512,PuntaArenas,
878280,99999,ALMIRANTEZAR,AR,SAVT,-43.211,-65.27,43,19390202,20220512,Trelew,
877500,99999,COMANDANTEESPORA,AR,SAZB,-38.725,-62.169,75,19390410,20220512,BahiaBlanca,
875820,99999,AEROPARQUEJORGENEWBERY,AR,SABE,-34.559,-58.416,5.5,19730101,20220512,BuenosAires,
873440,99999,AMBROSIOLVTARAVELLA,AR,SACO,-31.324,-64.208,488.9,19390201,20220512,Cordoba,
839710,99999,SALGADOFILHO,BR,SBPA,-29.994,-51.171,3.4,19730101,20220512,PortoAlegre,
837460,99999,GALEAOANTONIOCARLOSJOBIM,BR,SBGL,-22.809,-43.244,8.5,19310101,20220512,Rio,
833780,99999,PRESIDENTEJUSCELINOKUBITSCH,BR,SBBR,-15.863,-47.913,1060.4,19610101,20220512,Brasilia,
833620,99999,MARECHALRONDON,BR,SBCY,-15.653,-56.117,188.1,19730101,20220512,Cuiaba,
832480,99999,DEPUTADOLUISEDUARDOMAGALHA,BR,SBSV,-12.911,-38.331,19.5,19430809,20220512,Salvador,
823980,99999,PINTOMARTINSINTL,BR,SBFZ,-3.776,-38.533,25,19360824,20220512,Fortaleza,
821930,99999,VALDECANSINTL,BR,SBBE,-1.379,-48.476,16.5,19421001,20220512,Belem,
821110,99999,EDUARDOGOMESINTL,BR,SBEG,-3.039,-60.05,80.5,19770501,20220512,Manaus,
42500,99999,NUUK(GODTHAAB),GL,NAN,64.167,-51.75,84,19490101,20220512,Nuuk,
40300,99999,REYKJAVIK,IC,BIRK,64.13,-21.941,14.6,19310101,20220512,Reykjavik,
10250,99999,TROMSO,NO,ENTC,69.683,18.919,9.4,19730101,20220512,Tromso,
13840,99999,GARDERMOEN,NO,ENGM,60.194,11.1,207.6,19400511,20220512,Oslo,
24640,99999,BROMMA,SW,ESSB,59.354,17.942,14.3,19310101,20220512,Stockholm,
28450,99999,ROVANIEMI,FI,EFRO,66.565,25.83,196.6,19730101,20220512,Rovaniemi,
29740,99999,HELSINKIVANTAA,FI,EFHK,60.317,24.963,54.6,19520101,20220512,Helsinki,
267300,99999,VILNIUSINTL,LH,EYVI,54.634,25.286,196.9,19340313,20220512,Vilnius,
61800,99999,KASTRUP,DA,EKCH,55.618,12.656,5.2,19290801,20220512,Copenhagen,
30910,99999,DYCE,UK,EGPD,57.202,-2.198,65.5,19260602,20220512,Aberdeen,
39170,99999,ALDERGROVE,UK,EGAA,54.658,-6.216,81.7,19300228,20220512,Belfast,
37720,99999,HEATHROW,UK,EGLL,51.478,-0.461,25.3,19481201,20220512,London,
62400,99999,SCHIPHOL,NL,EHAM,52.309,4.764,-3.4,19320503,20220512,Amsterdam,
71490,99999,ORLY,FR,LFPO,48.725,2.359,88.7,19370601,20220512,Paris,
75100,99999,MERIGNAC,FR,LFBD,44.828,-0.716,49.4,19310101,20220512,Bordeaux,
82210,99999,BARAJAS,SP,LEMD,40.494,-3.567,609.6,19310102,20220512,Madrid,
85360,99999,LISBOA,PO,LPPT,38.781,-9.136,114,19310103,20220512,Lisbon,
106370,99999,FRANKFURTMAIN,GM,EDDF,50.026,8.543,110.9,19260101,20220512,Frankfurt,
66303,99999,BERNBELP,SZ,LSZB,46.914,7.497,510.2,19900424,20220512,Bern,
110360,99999,SCHWECHAT,AU,LOWW,48.11,16.57,182.9,19520101,20220512,Vienna,
161050,99999,VENEZIATESSERA,IT,LIPZ,45.505,12.352,2.1,19610301,20220512,Venice,
165600,99999,ELMAS,IT,LIEE,39.251,9.054,4,19431101,20220512,Cagliari,
123750,99999,OKECIE,PL,EPWA,52.166,20.967,110.3,19280102,20220512,Warsaw,
128390,99999,FERIHEGY,HU,LHBP,47.437,19.256,150.9,19520101,20220512,Budapest,
132720,99999,BEOGRAD,RI,LYBE,44.818,20.309,102.1,19450501,20220512,Belgrade,
136150,99999,TIRANARINAS,AL,LATI,41.415,19.721,38.4,19560101,20220512,Tirana,
167540,99999,NIKOSKAZANTZAKIS,GR,LGIR,35.34,25.18,35.1,19321101,20220512,Heraklion,
156140,99999,SOFIA,BU,LBSF,42.695,23.406,531,19310901,20220512,Sofia,
154210,99999,HENRICOANDA,RO,LROP,44.571,26.085,95.7,19730101,20220512,Bucharest,
165970,99999,LUQA,MT,LMML,35.857,14.478,91.4,19310104,20220512,Valletta,
260630,99999,PULKOVO,RS,ULLI,59.8,30.263,24.1,19310401,20220512,StPetersburg,
275155,99999,SHEREMETYEVO,RS,UUEE,55.973,37.415,189.6,19730101,20220512,Moscow,
333450,99999,ZHULIANYINTL,UP,UKKK,50.402,30.451,178.6,19320101,20220512,Kyiv,
338370,99999,ODESAINTL,UP,UKOO,46.427,30.676,52.4,19320101,20220512,Odesa,
341220,99999,CHERTOVITSKOYE,RS,UUOO,51.814,39.23,156.7,19320101,20220512,Voronezh,
348610,99999,ELISTA,RS,URWI,46.367,44.333,152.7,19590101,20220512,Elista,
345600,99999,GUMRAK,RS,URWW,48.783,44.346,146.9,19320101,20220512,Volgograd,
351210,99999,ORENBURG,RS,UWOO,51.796,55.457,118,19320101,20220512,Orenburg,
225500,99999,TALAGI,RS,ULAA,64.6,40.717,18.9,19310104,20220512,Arkhangelsk,
221130,99999,MURMANSK,RS,ULMM,68.782,32.751,81.1,19361231,20220512,Murmansk,
275950,99999,KAZAN,RS,UWKD,55.606,49.279,126.2,19320101,20220512,Kazan,
284400,99999,KOLTSOVO,RS,USSS,56.743,60.803,232.9,19320101,20220512,Yekaterinburg,
238490,99999,SURGUT,RS,USRR,61.344,73.402,61,19320101,20220512,Surgut,
232260,99999,VORKUTA,RS,NAN,67.483,64.017,172,19530216,20220512,Vorkuta,
286980,99999,OMSKRS,,UNOO,54.967,73.311,94.8,19320101,20220512,Omsk,
296340,99999,TOLMACHEVO,RS,UNNT,55.013,82.651,111.3,19320101,20220512,Novosibirsk,
230780,99999,NORIL'SK,RS,NAN,69.333,88.25,64,19751001,20220512,Norilsk,
218230,99999,YAKUTSK,RS,UEEE,62.093,129.771,99.1,19550305,20220512,Yakutsk,
298460,99999,NOVOKUZNETSK,RS,UNWW,53.733,87.183,308,19550701,20220512,Novokuznetsk,
307100,99999,IRKUTSK,RS,UIII,52.268,104.389,510.5,19320101,20220512,Irkutsk,
307580,99999,KADALA,RS,UIAA,52.026,113.306,692.5,19320101,20220512,Chita,
317350,99999,NOVY,RS,UHHH,48.528,135.188,75,19311231,20220512,Khabarovsk,
259130,99999,SOKOL,RS,UHMM,59.911,150.72,175,19451231,20220512,Magadan,
325400,99999,YELIZOVO,RS,UHPP,53.168,158.454,39.9,19320101,20220512,Petropavlovsk,
321500,99999,KHOMUTOVO,RS,UHSS,46.889,142.718,18,19530216,20220512,Y.-Sakhalinsk,
351880,99999,ASTANAINTL,KZ,UACC,51.022,71.467,355.1,19320101,20220512,Astana,
380010,99999,AKTAU,KZ,UATE,43.86,51.092,22.3,19320201,20220512,Aktau,
380620,99999,KZYL-ORDA,KZ,UAOO,44.767,65.533,129,19320101,20220512,Kyzylorda,
383530,99999,BISHKEK,KG,NAN,42.85,74.533,760,19460103,20220512,Bishkek,
384570,99999,YUZHNY,UZ,UTTT,41.258,69.281,431.9,19320101,20220512,Tashkent,
382640,99999,NUKUS,UZ,NAN,42.45,59.617,77,19591101,20220512,Nukus,
388360,99999,DUSHANBE,TI,UTDD,38.543,68.825,784.9,19320101,20220512,Dushanbe,
388800,99999,ASHGABAT,TX,UTAA,37.987,58.361,210.9,19320101,20220512,Ashgabat,
378640,99999,HEYDARALIYEV,AJ,UBBB,40.468,50.047,3,19590402,20220512,Baku,
375490,99999,TBILISI/LOCHINIAIRPORT,GG,UGGG,41.75,44.767,427,19590101,20220512,Tbil,isi
408560,99999,ZAHEDANINTL,IR,OIZH,29.476,60.907,1377.7,19570701,20220512,Zahedan,
407450,99999,MASHHADINTL,IR,OIMM,36.235,59.641,994.6,19440103,20220512,Mashhad,
407380,99999,GORGAN,IR,OING,36.909,54.401,-7.3,19730101,20220512,Gorgan,
407540,99999,MEHRABADINTL,IR,OIII,35.689,51.313,1207.6,19431101,20220512,Tehran,
408000,99999,ESFAHANSHAHIDBEHESHTIINTL,IR,OIFM,32.751,51.862,1545.9,19480901,20220512,Isfahan,
408480,99999,SHIRAZSHAHIDDASTGHAIBINTL,IR,OISS,29.539,52.589,1499.6,19570701,20220512,Shiraz,
406210,99999,KIRKUKAB,IZ,ORKK,35.469,44.349,323.4,19370105,20220512,Kirkuk,
406500,99999,BAGHDADINTLAIRPORT,IZ,ORBI,33.267,44.233,34.7,19370104,20220512,Baghdad,
405820,99999,KUWAITINTL,KU,OKBK,29.227,47.969,62.8,19450802,20220512,Kuwait,
411500,99999,BAHRAININTL,BA,OBBI,26.271,50.634,1.8,19440101,20220512,Manama,
411940,99999,DUBAIINTL,AE,OMDB,25.255,55.364,10.4,19830101,20220512,Dubai,
412560,99999,SEEBINTL,MU,OOMS,23.593,58.284,14.6,19440101,20220512,Muscat,
411400,99999,KINGABDULLAHBINABDULAZIZ,SA,OEGN,16.901,42.586,6.1,19830101,20220512,Jizan,
404370,99999,KINGKHALEDINTL,SA,OERK,24.958,46.699,624.5,19831222,20220512,Riyadh,
410240,99999,KINGABDULAZIZINTL,SA,OEJN,21.68,39.157,14.6,19830101,20220512,Jeddah,
401800,99999,BENGURION,IS,LLBG,32.011,34.887,41.1,19431101,20220512,TelAviv,
400250,99999,BASSELALASSADINTL,SY,OSLK,35.401,35.949,47.9,19500711,20220512,Latakia,
171700,99999,VAN,TU,LTCI,38.468,43.332,1670.3,19570701,20220512,Van,
170380,99999,TRABZON,TU,LTCG,40.995,39.79,31.7,19510101,20220512,Trabzon,
171280,99999,ESENBOGA,TU,LTAC,40.128,32.995,952.5,19670101,20220512,Ankara,
170600,99999,ATATURK,TU,LTBA,40.977,28.821,49.7,19450613,20220512,Istanbul,
623660,99999,CAIROINTL,EG,HECA,30.122,31.406,116.4,19431031,20220512,Cairo,
624140,99999,ASWANINTL,EG,HESN,23.964,32.82,201.8,19370103,20220512,Aswan,
627210,99999,KHARTOUM,SU,HSSK,15.589,32.553,385.6,19421031,20220512,Khartoum,
620530,99999,BENINAAIRPORT,LY,HLLB,32.097,20.269,132,19431031,20220512,Benghazi,
607150,99999,CARTHAGE,TS,DTTA,36.851,10.227,6.7,19430608,20220512,Tunis,
603900,99999,HOUARIBOUMEDIENE,AG,DAAG,36.691,3.215,25,19430401,20220512,Algiers,
604900,99999,ESSENIA,AG,DAOO,35.624,-0.621,89.9,19490102,20220512,Oran,
601410,99999,SAISS,MO,GMFF,33.927,-4.978,579.1,19441101,20220512,Fes,
601560,99999,MOHAMMEDV,MO,GMMN,33.367,-7.59,199.9,19421121,20220512,Casablanca,
602300,99999,MENARA,MO,GMMX,31.607,-8.036,467.9,19430118,20220512,Marrakesh,
600330,99999,HASSANI,WI,GMML,27.152,-13.219,63.1,19610601,20220512,Laayoune,
614150,99999,NOUADHIBOU,MR,GQPP,20.933,-17.03,4.9,19490401,20220512,Nouadhibou,
606805,99999,TAMANRASSET,AG,NAN,22.8,5.45,1412,19801107,20220512,Tamanrasset,
631252,99999,DJIBOUTI/AMBOULI,DJ,HFFF,11.55,43.133,13,19961201,20220512,Djibouti,
634500,99999,BOLEINTL,ET,HAAB,8.978,38.799,2325.6,19570101,20220512,AddisAbaba,
634710,99999,DIREDAWAINTL,ET,HADR,9.625,41.854,1158.8,19570101,20220512,DireDawa,
637400,99999,NAIROBIJKIA,KE,HKJK,-1.319,36.928,1623.7,19490121,20220512,Nairobi,
638200,99999,MOMBASAMOIINTL,KE,HKMO,-4.035,39.594,61,19490121,20220512,Mombasa,
637050,99999,ENTEBBEINTL,UG,HUEN,0.042,32.444,1152.8,19490121,20220512,Kampala,
643900,99999,BUJUMBURAINTL,BY,HBBA,-3.324,29.319,787,19730101,20220512,Bujumbura,
638700,99999,ZANZIBAR,TZ,HTZA,-6.222,39.225,16.5,19570101,20220512,Zanzibar,
675860,99999,LILONGWEINTL,MI,FWLI,-13.789,33.781,1261,19820501,20220512,Lilongwe,
676650,99999,LUSAKAINTL,ZA,FLKK,-15.333,28.45,1151.8,19730101,20220512,Lusaka,
677750,99999,ROBERTGABRIELMUGABEINTL,ZI,FVRG,-17.93,31.094,1489.6,19490101,20220512,Harare,
673410,99999,MAPUTO,MZ,FQMA,-25.921,32.573,44.2,19730101,20220512,Maputo,
670830,99999,IVATO,MA,FMMI,-18.797,47.479,1279.6,19730101,20220512,Antananarivo,
670020,99999,PRINCESAIDIBRAHIM,CN,FMCH,-11.534,43.272,28.3,19811101,20220512,Moroni,
682635,99999,LANSERIA,SF,FALA,-25.939,27.926,1376.8,19900323,20220512,Johannesburg,
688160,99999,CAPETOWNINTL,SF,FACT,-33.965,18.602,46,19490101,20220512,CapeTown,
681120,99999,HOSEAKUTAKOINTL,WA,FYWH,-22.48,17.471,1719.1,19730101,20220512,Windhoek,
619020,99999,ASCENSIONAUXAF,SH,FHAW,-7.97,-14.394,84.7,19420901,20220512,AscensionIsland,
661600,99999,LUANDA4DEFEVEREIRO,AO,FNLU,-8.858,13.231,74.1,19490103,20220512,Luanda,
642100,99999,NDJILIINTL,CG,FZAA,-4.386,15.445,313,19490704,20220512,Kinshasa,
645000,99999,LEONMBA,GB,FOOL,0.459,9.412,11.9,19490401,20220512,Libreville,
648100,99999,MALABO,EK,FGSL,3.755,8.709,23.2,19740618,20220512,Malabo,
649500,99999,YAOUNDENSIMALEN,CM,FKYS,3.723,11.553,694.3,19490914,20220512,Yaounde,
646500,99999,BANGUIMPOKO,CT,FEFF,4.398,18.519,368.2,19490401,20220512,Bangui,
651010,99999,ILORIN,NI,DNIL,8.44,4.494,343.2,19500203,20220512,Ilorin,
650460,99999,MALLAMAMINUINTL,NI,DNKN,12.048,8.525,476.1,19430501,20220512,Kano,
647000,99999,NDJAMENAHASSANDJAMOUS,CD,FTTJ,12.134,15.034,295,19490401,20220512,N'Djamena,
610520,99999,DIORIHAMANI,NG,DRRN,13.482,2.184,223.1,19490401,20220512,Niamey,
655030,99999,OUAGADOUGOU,UV,DFFD,12.353,-1.512,316.1,19490401,20220512,Ouagadougou,
612910,99999,SENOU,ML,GABS,12.534,-7.95,380.1,19750101,20220512,Bamako,
654720,99999,KOTOKAINTL,GH,DGAA,5.605,-0.167,62.5,19420701,20220512,Accra,
618320,99999,CONAKRY,GV,GUCY,9.577,-13.612,21.9,19490401,20220512,Conakry,
616410,99999,LEOPOLDSEDARSENGHORINTL,SG,GOOY,14.74,-17.49,25.9,19430401,20220512,Dakar,
85940,99999,AMILCARCABRALINTL,CV,GVAC,16.741,-22.949,53.9,19480304,20220512,CapeVerde,
415710,99999,CHAKLALA,PK,OPRN,33.617,73.099,508.4,19440101,20220512,Islamabad,
416750,99999,MULTANINTL,PK,OPMT,30.203,71.419,121.9,19440101,20220512,Multan,
417800,99999,JINNAHINTL,PK,OPKC,24.907,67.161,30.5,19420506,20220512,Karachi,
416600,99999,QUETTA,PK,OPQT,30.251,66.938,1600.2,19440101,20220512,Quetta,
444540,99999,TRIBHUVANINTL,NP,VNKT,27.697,85.359,1338.1,19730521,20220512,Kathmandu,
421810,99999,INDIRAGANDHIINTL,IN,VIDP,28.567,77.103,236.8,19750307,20220512,Delhi,
423390,99999,JODHPUR,IN,VIJO,26.251,73.049,218.5,19430731,20220512,Jodhpur,
426470,99999,AHMEDABAD,IN,VAAH,23.077,72.635,57.6,19440101,20220512,Ahmedabad,
430030,99999,CHHATRAPATISHIVAJIINTL,IN,VABB,19.089,72.868,11.3,19440101,20220512,Mumbai,
432960,99999,BANGALORE/HINDUSTANAIRPORT,IN,NAN,12.95,77.633,888,19420901,20220512,Bangalore,
433530,99999,COCHIN,IN,VOCC,9.946,76.272,2.4,19440101,20220512,Kochi,
435550,99999,MALEINTL,MV,VRMM,4.192,73.529,1.8,19810101,20220512,Male,
434670,99999,COLOMBORATMALANA,CE,VCCC,6.822,79.886,6.7,19440513,20220512,Colombo,
432790,99999,CHENNAIINTL,IN,VOMM,12.994,80.181,15.8,19440101,20220512,Chennai,
431280,99999,BEGUMPETAIRPORT,IN,VOHY,17.452,78.461,531,19440101,20220512,Hyderabad,
431490,99999,VISHAKHAPATNAMCTLZ,IN,VOVZ,17.717,83.217,4.6,19540101,20220512,Visakhapatnam,
426670,99999,BHOPAL,IN,VABP,23.287,77.337,524,19440101,20220512,Bhopal,
424920,99999,PATNA,IN,VEPT,25.591,85.088,51.8,19440101,20220512,Patna,
428090,99999,NETAJISUBHASHCHANDRABOSEI,IN,VECC,22.655,88.447,4.9,19430831,20220512,Kolkata,
419220,99999,HAZRATSHAHJALALINTL,BG,VGHS,23.843,90.398,9.1,19430715,20220512,Dhaka,
424100,99999,GUWAHATIINTL,IN,VEGT,26.106,91.586,49.4,19440102,20220512,Guwahati,
426230,99999,IMPHAL,IN,VEIM,24.76,93.897,774.2,19441202,20220512,Imphal,
545110,99999,BEIJING-CAPITALINTERNATION,CH,ZBAA,40.08,116.585,35.4,19451031,20220512,Beijing,
546620,99999,ZHOUSHUIZI,CH,ZYTL,38.966,121.539,32.6,19560820,20220512,Dalian,
541610,99999,LONGJIA,CH,ZYCC,43.996,125.681,215.2,19560820,20220512,Changchun,
507450,99999,SANJIAZI,CH,ZYQQ,47.24,123.918,145.4,19560820,20220512,Qiqihar,
501360,99999,MOHE,CH,NAN,52.967,122.533,438,19730101,20220512,Mohe,
534630,99999,BAITA,CH,ZBHH,40.851,111.824,1083.9,19560820,20220512,Hohhot,
570830,99999,XINZHENG,CH,ZHCC,34.52,113.841,150.9,19570601,20220512,Zhengzhou,
548570,99999,LIUTING,CH,ZSQD,36.266,120.374,10.1,19560820,20220512,Qingdao,
583670,99999,HONGQIAOINTL,CH,ZSSS,31.198,121.336,3,19560820,20220512,Shanghai,
586060,99999,CHANGBEIINTL,CH,ZSCN,28.865,115.9,43.6,19560820,20220512,Nanchang,
591340,99999,GAOQI,CH,ZSAM,24.544,118.128,18,19560820,20220512,Xiamen,
450070,99999,HONGKONGINTL,HK,VHHH,22.309,113.915,8.5,19481231,20220512,HongKong,
574941,99999,SANYAPHOENIXINTL,CH,ZJSY,18.303,109.412,28,20040713,20220512,Sanya,
579570,99999,LIANGJIANG,CH,ZGKL,25.218,110.039,173.7,19430606,20220512,Guilin,
567780,99999,WUJIABA,CH,ZPPP,24.992,102.744,1894.9,19420713,20220512,Kunming,
578160,99999,LONGDONGBAO,CH,ZUGY,26.539,106.801,1138.7,19450204,20220512,Guiyang,
574940,99999,TIANHE,CH,ZHHH,30.784,114.208,34.4,19560820,20220512,Wuhan,
575160,99999,JIANGBEI,CH,ZUCK,29.719,106.642,416.1,19441111,20220512,Chongqing,
562940,99999,SHUANGLIU,CH,ZUUU,30.579,103.947,495.3,19560820,20220512,Chengdu,
570360,99999,XIANYANG,CH,ZLXY,34.447,108.752,479.1,19560820,20220512,Xi'An,
536140,99999,YINCHUAN,CH,ZLIC,38.483,106.217,1112,19560820,20220512,Yinchuan,
528660,99999,XINING,CH,ZLXN,36.617,101.767,2262,19560820,20220512,Xining,
514635,99999,DIWOPU,CH,ZWWW,43.907,87.474,647.7,19850209,20220512,Urumqi,
518280,99999,HOTAN,CH,ZWTN,37.133,79.933,1375,19560820,20220512,Hotan,
555910,99999,LHASA,CH,ZULS,29.667,91.133,3650,19560820,20220512,Lhasa,
466960,99999,SUNGSHAN,TW,RCSS,25.069,121.552,5.5,19461231,20220512,Taipei,
470580,99999,PYONGYANGINTL,KN,ZKPY,39.224,125.67,35.7,19501024,20220512,Pyongyang,
471100,99999,GIMPO,KS,RKSS,37.558,126.791,17.7,19450930,20220512,Seoul,
471530,99999,GIMHAEINTL,KS,RKPK,35.18,128.938,1.8,19540719,20220512,Busan,
471820,99999,JEJUINTL,KS,RKPC,33.511,126.493,36,19730101,20220512,Jeju,
474790,99999,SAPPORO,JA,RJCO,43.116,141.38,7.6,19730101,20220512,Sapporo,
476710,99999,TOKYOINTL,JA,RJTT,35.552,139.78,10.7,19460911,20220512,Tokyo,
476350,99999,NAGOYA,JA,RJNA,35.255,136.924,15.8,19461031,20220512,Nagoya,
478080,99999,FUKUOKA,JA,RJFF,33.586,130.451,9.8,19460906,20220512,Fukuoka,
442920,99999,CHINGGISKHAANINTL,MG,ZMUB,47.843,106.767,1330.1,19560802,20220512,Ulaanbaatar,
480080,99999,MYITKYINA,BM,VBMK,25.367,97.4,147,19440713,20220512,Myitkyina,
480420,99999,MANDALAY,BM,VBRM,21.983,96.1,76,19470405,20220512,Mandalay,
480970,99999,YANGONINTL,BM,VYYY,16.907,96.133,33.2,19490417,20220512,Yangon,
483270,99999,CHIANGMAIINTL,TH,VTCC,18.767,98.963,315.8,19421231,20220512,ChiangMai,
484560,99999,BANGKOKINTL,TH,VTBD,13.913,100.607,2.7,19421231,20220512,Bangkok,
485650,99999,PHUKETINTL,TH,VTSP,8.113,98.317,25,19560126,20220512,Phuket,
489400,99999,WATTAYINTL,LA,VLVT,17.988,102.563,171.9,19490101,20220512,Vientiane,
489910,99999,PHNOMPENHINTL,CB,VDPP,11.547,104.844,12.2,19490102,20220512,PhnomPenh,
488200,99999,NOIBAIINTL,VM,VVNB,21.221,105.807,11.9,19581201,20220512,Hanoi,
489000,99999,TANSONNHATINTL,VM,VVTS,10.819,106.652,10.1,19490102,20220512,HCMC,
486470,99999,SULTANABDULAZIZSHAHINTL,MY,WMSA,3.131,101.549,27.4,19490101,20220512,KualaLumpur,
486980,99999,SINGAPORECHANGIINTL,SN,WSSS,1.35,103.994,6.7,19560103,20220512,Singapore,
960350,99999,POLONIA,ID,WIMM,3.558,98.672,34.7,19460201,20220512,Medan,
967490,99999,SOEKARNOHATTAINTL,ID,WIII,-6.126,106.656,10.4,19850402,20220512,Jakarta,
966330,99999,SEPINGGAN,ID,WALL,-1.268,116.894,3.7,19471101,20220512,Balikpapan,
971800,99999,HASANUDDIN,ID,WAAA,-5.062,119.554,14.3,19470201,20220512,Makassar,
977240,99999,PATTIMURA,ID,WAPP,-3.71,128.089,10.1,19490101,20220512,Ambon,
984290,99999,NINOYAQUINOINTL,RP,RPLL,14.509,121.02,22.9,19450331,20220512,Manila,
986460,99999,MACTANCEBUINTL,RP,RPVM,10.308,123.979,9.4,19650731,20220512,CebuCity,
987530,99999,FRANCISCOBANGOYINTL,RP,RPMD,7.126,125.646,29.3,19740601,20220512,Davao,
946100,99999,PERTHINTL,AS,YPPH,-31.94,115.967,20.4,19471231,20220512,Perth,
941200,99999,DARWININTL,AS,YPDN,-12.415,130.877,31.4,19410131,20220512,Darwin,
946720,99999,ADELAIDEINTL,AS,YPAD,-34.945,138.531,6.1,19550215,20220512,Adelaide,
948640,99999,MELBOURNEESSENDON,AS,YMEN,-37.728,144.902,86,19471231,20220512,Melbourne,
949750,99999,HOBART,AS,YMHB,-42.836,147.51,4,19580531,20220512,Hobart,
949260,99999,CANBERRA,AS,YSCB,-35.307,149.195,574.9,19390228,20220512,Canberra,
947670,99999,SYDNEYINTL,AS,YSSY,-33.946,151.177,6.4,19430923,20220512,Sydney,
945780,99999,BRISBANEAIRPORT,AS,YBBN,-27.417,153.067,6,19441001,20220512,Brisbane,
931190,99999,AUCKLANDINTL,NZ,NZAA,-37.008,174.792,7,19651231,20220512,Auckland,
938450,99999,INVERCARGILLAIRPORTAWS,NZ,NAN,-46.417,168.333,2,19890516,20220512,Invercargill,
920350,99999,PORTMORESBYJACKSONSINTL,PP,AYPY,-9.443,147.22,44.5,19970101,20220512,PortMoresby,
915200,99999,HONIARAINTL,BP,AGGH,-9.428,160.055,8.5,19430316,20220512,Honiara,
916830,99999,NAUSORIINTL,FJ,NFNA,-18.043,178.559,5.2,19730101,20220512,Suva,
912120,41415,GUAMINTERNATIONALAIRPORT,GQ,GUPGUM,13.483,144.8,77.4,19730101,20220513,Hagatna,
917650,61705,TAFUNA/PAGOPAGOINTERNATIONA,AQ,ASNSTU,-14.331,-170.714,3.7,19450801,20220512,PagoPago,
